STARLINK-35682          
1 66467U 25262M   25332.83336806 -.01501818  00000+0 -10316-1 0  9995
2 66467  42.9989 153.2806 0001669 274.5745 140.0568 15.76723774  3403
STARLINK-35331          
1 66468U 25262N   25332.83336806 -.01494197  00000+0 -10411-1 0  9993
2 66468  42.9988 153.2644 0001790 274.7726 146.1388 15.76389964  3405
STARLINK-35451          
1 66469U 25262P   25332.83336806 -.01199048  00000+0 -84325-2 0  9997
2 66469  42.9989 153.2485 0001720 273.0157 154.0134 15.76011097  3409
STARLINK-35655          
1 66470U 25262Q   25332.83336806 -.01528456  00000+0 -10721-1 0  9996
2 66470  42.9990 153.2595 0001683 285.9992 136.9647 15.76312999  3405
STARLINK-35569          
1 66471U 25262R   25332.83336806 -.01343903  00000+0 -93472-2 0  9994
2 66471  42.9989 153.2543 0001918 274.7151 150.3156 15.76122402  3404
STARLINK-35567          
1 66472U 25262S   25332.83336806 -.01044353  00000+0 -72837-2 0  9994
2 66472  42.9989 153.2437 0001815 272.6439 156.4479 15.75832167  3409
STARLINK-35568          
1 66473U 25262T   25332.83336806 -.00903512  00000+0 -63525-2 0  9999
2 66473  42.9988 153.2384 0001621 279.0030 152.1051 15.75695697  3407
STARLINK-35620          
1 66474U 25262U   25332.83336806 -.00800497  00000+0 -55812-2 0  9998
2 66474  42.9988 153.2333 0001842 281.0163 152.0733 15.75601250  3405
STARLINK-35538          
1 66475U 25262V   25332.83336806 -.00643658  00000+0 -44296-2 0  9997
2 66475  42.9988 153.2284 0001980 266.1544 168.9325 15.75472006  3409
STARLINK-35372          
1 66476U 25262W   25332.83336806 -.00522779  00000+0 -35602-2 0  9999
2 66476  42.9989 153.2234 0001705 275.3754 161.6787 15.75387666  3292
STARLINK-35354          
1 66477U 25262X   25332.83336806 -.00145171  00000+0 -95545-3 0  9990
2 66477  42.9989 153.2132 0001509 277.5317 163.4989 15.75105942  3403
STARLINK-35283          
1 66478U 25262Y   25332.83336806 -.00043095  00000+0 -27861-3 0  9999
2 66478  42.9990 153.2075 0002043 275.7841 167.1948 15.75058129  3408
