CCSDS_OMM_VERS = 2.0
CREATION_DATE  = 
ORIGINATOR     = 

OBJECT_NAME    = STARLINK-35682
OBJECT_ID      = 2025-262M
CENTER_NAME    = EARTH
REF_FRAME      = TEME
TIME_SYSTEM    = UTC
MEAN_ELEMENT_THEORY = SGP/SGP4

EPOCH          = 2025-11-28T20:00:03.000384
MEAN_MOTION    = 15.76723774
ECCENTRICITY   = .0001669
INCLINATION    = 42.9989
RA_OF_ASC_NODE = 153.2806
ARG_OF_PERICENTER = 274.5745
MEAN_ANOMALY   = 140.0568

EPHEMERIS_TYPE = 0
CLASSIFICATION_TYPE = U
NORAD_CAT_ID   = 66467
ELEMENT_SET_NO = 999
REV_AT_EPOCH   = 340
BSTAR          = -.10316E-1
MEAN_MOTION_DOT = -.1501818E-1
MEAN_MOTION_DDOT = 0

CCSDS_OMM_VERS = 2.0
CREATION_DATE  = 
ORIGINATOR     = 

OBJECT_NAME    = STARLINK-35331
OBJECT_ID      = 2025-262N
CENTER_NAME    = EARTH
REF_FRAME      = TEME
TIME_SYSTEM    = UTC
MEAN_ELEMENT_THEORY = SGP/SGP4

EPOCH          = 2025-11-28T20:00:03.000384
MEAN_MOTION    = 15.76389964
ECCENTRICITY   = .000179
INCLINATION    = 42.9988
RA_OF_ASC_NODE = 153.2644
ARG_OF_PERICENTER = 274.7726
MEAN_ANOMALY   = 146.1388

EPHEMERIS_TYPE = 0
CLASSIFICATION_TYPE = U
NORAD_CAT_ID   = 66468
ELEMENT_SET_NO = 999
REV_AT_EPOCH   = 340
BSTAR          = -.10411E-1
MEAN_MOTION_DOT = -.1494197E-1
MEAN_MOTION_DDOT = 0

CCSDS_OMM_VERS = 2.0
CREATION_DATE  = 
ORIGINATOR     = 

OBJECT_NAME    = STARLINK-35451
OBJECT_ID      = 2025-262P
CENTER_NAME    = EARTH
REF_FRAME      = TEME
TIME_SYSTEM    = UTC
MEAN_ELEMENT_THEORY = SGP/SGP4

EPOCH          = 2025-11-28T20:00:03.000384
MEAN_MOTION    = 15.76011097
ECCENTRICITY   = .000172
INCLINATION    = 42.9989
RA_OF_ASC_NODE = 153.2485
ARG_OF_PERICENTER = 273.0157
MEAN_ANOMALY   = 154.0134

EPHEMERIS_TYPE = 0
CLASSIFICATION_TYPE = U
NORAD_CAT_ID   = 66469
ELEMENT_SET_NO = 999
REV_AT_EPOCH   = 340
BSTAR          = -.84325E-2
MEAN_MOTION_DOT = -.1199048E-1
MEAN_MOTION_DDOT = 0

CCSDS_OMM_VERS = 2.0
CREATION_DATE  = 
ORIGINATOR     = 

OBJECT_NAME    = STARLINK-35655
OBJECT_ID      = 2025-262Q
CENTER_NAME    = EARTH
REF_FRAME      = TEME
TIME_SYSTEM    = UTC
MEAN_ELEMENT_THEORY = SGP/SGP4

EPOCH          = 2025-11-28T20:00:03.000384
MEAN_MOTION    = 15.76312999
ECCENTRICITY   = .0001683
INCLINATION    = 42.9990
RA_OF_ASC_NODE = 153.2595
ARG_OF_PERICENTER = 285.9992
MEAN_ANOMALY   = 136.9647

EPHEMERIS_TYPE = 0
CLASSIFICATION_TYPE = U
NORAD_CAT_ID   = 66470
ELEMENT_SET_NO = 999
REV_AT_EPOCH   = 340
BSTAR          = -.10721E-1
MEAN_MOTION_DOT = -.1528456E-1
MEAN_MOTION_DDOT = 0

CCSDS_OMM_VERS = 2.0
CREATION_DATE  = 
ORIGINATOR     = 

OBJECT_NAME    = STARLINK-35569
OBJECT_ID      = 2025-262R
CENTER_NAME    = EARTH
REF_FRAME      = TEME
TIME_SYSTEM    = UTC
MEAN_ELEMENT_THEORY = SGP/SGP4

EPOCH          = 2025-11-28T20:00:03.000384
MEAN_MOTION    = 15.76122402
ECCENTRICITY   = .0001918
INCLINATION    = 42.9989
RA_OF_ASC_NODE = 153.2543
ARG_OF_PERICENTER = 274.7151
MEAN_ANOMALY   = 150.3156

EPHEMERIS_TYPE = 0
CLASSIFICATION_TYPE = U
NORAD_CAT_ID   = 66471
ELEMENT_SET_NO = 999
REV_AT_EPOCH   = 340
BSTAR          = -.93472E-2
MEAN_MOTION_DOT = -.1343903E-1
MEAN_MOTION_DDOT = 0

CCSDS_OMM_VERS = 2.0
CREATION_DATE  = 
ORIGINATOR     = 

OBJECT_NAME    = STARLINK-35567
OBJECT_ID      = 2025-262S
CENTER_NAME    = EARTH
REF_FRAME      = TEME
TIME_SYSTEM    = UTC
MEAN_ELEMENT_THEORY = SGP/SGP4

EPOCH          = 2025-11-28T20:00:03.000384
MEAN_MOTION    = 15.75832167
ECCENTRICITY   = .0001815
INCLINATION    = 42.9989
RA_OF_ASC_NODE = 153.2437
ARG_OF_PERICENTER = 272.6439
MEAN_ANOMALY   = 156.4479

EPHEMERIS_TYPE = 0
CLASSIFICATION_TYPE = U
NORAD_CAT_ID   = 66472
ELEMENT_SET_NO = 999
REV_AT_EPOCH   = 340
BSTAR          = -.72837E-2
MEAN_MOTION_DOT = -.1044353E-1
MEAN_MOTION_DDOT = 0

CCSDS_OMM_VERS = 2.0
CREATION_DATE  = 
ORIGINATOR     = 

OBJECT_NAME    = STARLINK-35568
OBJECT_ID      = 2025-262T
CENTER_NAME    = EARTH
REF_FRAME      = TEME
TIME_SYSTEM    = UTC
MEAN_ELEMENT_THEORY = SGP/SGP4

EPOCH          = 2025-11-28T20:00:03.000384
MEAN_MOTION    = 15.75695697
ECCENTRICITY   = .0001621
INCLINATION    = 42.9988
RA_OF_ASC_NODE = 153.2384
ARG_OF_PERICENTER = 279.0030
MEAN_ANOMALY   = 152.1051

EPHEMERIS_TYPE = 0
CLASSIFICATION_TYPE = U
NORAD_CAT_ID   = 66473
ELEMENT_SET_NO = 999
REV_AT_EPOCH   = 340
BSTAR          = -.63525E-2
MEAN_MOTION_DOT = -.903512E-2
MEAN_MOTION_DDOT = 0

CCSDS_OMM_VERS = 2.0
CREATION_DATE  = 
ORIGINATOR     = 

OBJECT_NAME    = STARLINK-35620
OBJECT_ID      = 2025-262U
CENTER_NAME    = EARTH
REF_FRAME      = TEME
TIME_SYSTEM    = UTC
MEAN_ELEMENT_THEORY = SGP/SGP4

EPOCH          = 2025-11-28T20:00:03.000384
MEAN_MOTION    = 15.75601250
ECCENTRICITY   = .0001842
INCLINATION    = 42.9988
RA_OF_ASC_NODE = 153.2333
ARG_OF_PERICENTER = 281.0163
MEAN_ANOMALY   = 152.0733

EPHEMERIS_TYPE = 0
CLASSIFICATION_TYPE = U
NORAD_CAT_ID   = 66474
ELEMENT_SET_NO = 999
REV_AT_EPOCH   = 340
BSTAR          = -.55812E-2
MEAN_MOTION_DOT = -.800497E-2
MEAN_MOTION_DDOT = 0

CCSDS_OMM_VERS = 2.0
CREATION_DATE  = 
ORIGINATOR     = 

OBJECT_NAME    = STARLINK-35538
OBJECT_ID      = 2025-262V
CENTER_NAME    = EARTH
REF_FRAME      = TEME
TIME_SYSTEM    = UTC
MEAN_ELEMENT_THEORY = SGP/SGP4

EPOCH          = 2025-11-28T20:00:03.000384
MEAN_MOTION    = 15.75472006
ECCENTRICITY   = .000198
INCLINATION    = 42.9988
RA_OF_ASC_NODE = 153.2284
ARG_OF_PERICENTER = 266.1544
MEAN_ANOMALY   = 168.9325

EPHEMERIS_TYPE = 0
CLASSIFICATION_TYPE = U
NORAD_CAT_ID   = 66475
ELEMENT_SET_NO = 999
REV_AT_EPOCH   = 340
BSTAR          = -.44296E-2
MEAN_MOTION_DOT = -.643658E-2
MEAN_MOTION_DDOT = 0

CCSDS_OMM_VERS = 2.0
CREATION_DATE  = 
ORIGINATOR     = 

OBJECT_NAME    = STARLINK-35372
OBJECT_ID      = 2025-262W
CENTER_NAME    = EARTH
REF_FRAME      = TEME
TIME_SYSTEM    = UTC
MEAN_ELEMENT_THEORY = SGP/SGP4

EPOCH          = 2025-11-28T20:00:03.000384
MEAN_MOTION    = 15.75387666
ECCENTRICITY   = .0001705
INCLINATION    = 42.9989
RA_OF_ASC_NODE = 153.2234
ARG_OF_PERICENTER = 275.3754
MEAN_ANOMALY   = 161.6787

EPHEMERIS_TYPE = 0
CLASSIFICATION_TYPE = U
NORAD_CAT_ID   = 66476
ELEMENT_SET_NO = 999
REV_AT_EPOCH   = 329
BSTAR          = -.35602E-2
MEAN_MOTION_DOT = -.522779E-2
MEAN_MOTION_DDOT = 0

CCSDS_OMM_VERS = 2.0
CREATION_DATE  = 
ORIGINATOR     = 

OBJECT_NAME    = STARLINK-35354
OBJECT_ID      = 2025-262X
CENTER_NAME    = EARTH
REF_FRAME      = TEME
TIME_SYSTEM    = UTC
MEAN_ELEMENT_THEORY = SGP/SGP4

EPOCH          = 2025-11-28T20:00:03.000384
MEAN_MOTION    = 15.75105942
ECCENTRICITY   = .0001509
INCLINATION    = 42.9989
RA_OF_ASC_NODE = 153.2132
ARG_OF_PERICENTER = 277.5317
MEAN_ANOMALY   = 163.4989

EPHEMERIS_TYPE = 0
CLASSIFICATION_TYPE = U
NORAD_CAT_ID   = 66477
ELEMENT_SET_NO = 999
REV_AT_EPOCH   = 340
BSTAR          = -.95545E-3
MEAN_MOTION_DOT = -.145171E-2
MEAN_MOTION_DDOT = 0

CCSDS_OMM_VERS = 2.0
CREATION_DATE  = 
ORIGINATOR     = 

OBJECT_NAME    = STARLINK-35283
OBJECT_ID      = 2025-262Y
CENTER_NAME    = EARTH
REF_FRAME      = TEME
TIME_SYSTEM    = UTC
MEAN_ELEMENT_THEORY = SGP/SGP4

EPOCH          = 2025-11-28T20:00:03.000384
MEAN_MOTION    = 15.75058129
ECCENTRICITY   = .0002043
INCLINATION    = 42.9990
RA_OF_ASC_NODE = 153.2075
ARG_OF_PERICENTER = 275.7841
MEAN_ANOMALY   = 167.1948

EPHEMERIS_TYPE = 0
CLASSIFICATION_TYPE = U
NORAD_CAT_ID   = 66478
ELEMENT_SET_NO = 999
REV_AT_EPOCH   = 340
BSTAR          = -.27861E-3
MEAN_MOTION_DOT = -.43095E-3
MEAN_MOTION_DDOT = 0

